$$SOE
2459580.500000000, A.D. 2022-Jan-01 00:00:00.0000, 2.654353476282970E+09, 5.007294364551376E+09, -8.706880156810594E+08,
2459587.500000000, A.D. 2022-Jan-08 00:00:00.0000, 2.651718767605387E+09, 5.008827603004335E+09, -8.714887020716870E+08,
2459594.500000000, A.D. 2022-Jan-15 00:00:00.0000, 2.649083295293639E+09, 5.010359565480366E+09, -8.722891621960561E+08,
2459601.500000000, A.D. 2022-Jan-22 00:00:00.0000, 2.646447064028424E+09, 5.011890250247619E+09, -8.730893962513585E+08,
2459608.500000000, A.D. 2022-Jan-29 00:00:00.0000, 2.643810079069568E+09, 5.013419658051167E+09, -8.738894043277848E+08,
2459615.500000000, A.D. 2022-Feb-05 00:00:00.0000, 2.641172344048940E+09, 5.014947791441329E+09, -8.746891862607532E+08,
2459622.500000000, A.D. 2022-Feb-12 00:00:00.0000, 2.638533860936706E+09, 5.016474653033762E+09, -8.754887417681961E+08,
2459629.500000000, A.D. 2022-Feb-19 00:00:00.0000, 2.635894630856104E+09, 5.018000245070292E+09, -8.762880705578823E+08,
2459636.500000000, A.D. 2022-Feb-26 00:00:00.0000, 2.633254654435421E+09, 5.019524569557506E+09, -8.770871723437726E+08,
2459643.500000000, A.D. 2022-Mar-05 00:00:00.0000, 2.630613931856394E+09, 5.021047628366237E+09, -8.778860468366766E+08,
2459650.500000000, A.D. 2022-Mar-12 00:00:00.0000, 2.627972462820902E+09, 5.022569423226297E+09, -8.786846937352176E+08,
2459657.500000000, A.D. 2022-Mar-19 00:00:00.0000, 2.625330246506970E+09, 5.024089955644640E+09, -8.794831127216301E+08,
2459664.500000000, A.D. 2022-Mar-26 00:00:00.0000, 2.622687281536517E+09, 5.025609226741199E+09, -8.802813034652197E+08,
2459671.500000000, A.D. 2022-Apr-02 00:00:00.0000, 2.620043566022622E+09, 5.027127236946811E+09, -8.810792656445425E+08,
2459678.500000000, A.D. 2022-Apr-09 00:00:00.0000, 2.617399097968390E+09, 5.028643985568243E+09, -8.818769990130665E+08,
2459685.500000000, A.D. 2022-Apr-16 00:00:00.0000, 2.614753876374534E+09, 5.030159470874643E+09, -8.826745034878328E+08,
2459692.500000000, A.D. 2022-Apr-23 00:00:00.0000, 2.612107901786805E+09, 5.031673691789868E+09, -8.834717790562279E+08,
2459699.500000000, A.D. 2022-Apr-30 00:00:00.0000, 2.609461174413113E+09, 5.033186648945580E+09, -8.842688255129242E+08,
2459706.500000000, A.D. 2022-May-07 00:00:00.0000, 2.606813692873078E+09, 5.034698343121654E+09, -8.850656424692454E+08,
2459713.500000000, A.D. 2022-May-14 00:00:00.0000, 2.604165454969388E+09, 5.036208774112206E+09, -8.858622295141580E+08,
2459720.500000000, A.D. 2022-May-21 00:00:00.0000, 2.601516458449886E+09, 5.037717940776005E+09, -8.866585862785933E+08,
2459727.500000000, A.D. 2022-May-28 00:00:00.0000, 2.598866701281586E+09, 5.039225841312596E+09, -8.874547124375191E+08,
2459734.500000000, A.D. 2022-Jun-04 00:00:00.0000, 2.596216181713754E+09, 5.040732473451387E+09, -8.882506077007117E+08,
2459741.500000000, A.D. 2022-Jun-11 00:00:00.0000, 2.593564898274734E+09, 5.042237834556051E+09, -8.890462718052905E+08,
2459748.500000000, A.D. 2022-Jun-18 00:00:00.0000, 2.590912849741274E+09, 5.043741921657719E+09, -8.898417045124078E+08,
2459755.500000000, A.D. 2022-Jun-25 00:00:00.0000, 2.588260035109800E+09, 5.045244731384012E+09, -8.906369056134317E+08,
2459762.500000000, A.D. 2022-Jul-02 00:00:00.0000, 2.585606453703743E+09, 5.046746259718439E+09, -8.914318749631760E+08,
2459769.500000000, A.D. 2022-Jul-09 00:00:00.0000, 2.582952105807199E+09, 5.048246501767360E+09, -8.922266125614033E+08,
2459776.500000000, A.D. 2022-Jul-16 00:00:00.0000, 2.580296993769793E+09, 5.049745452617472E+09, -8.930211185888803E+08,
2459783.500000000, A.D. 2022-Jul-23 00:00:00.0000, 2.577641121384354E+09, 5.051243109361654E+09, -8.938153931898158E+08,
2459790.500000000, A.D. 2022-Jul-30 00:00:00.0000, 2.574984491621492E+09, 5.052739470939266E+09, -8.946094362822521E+08,
2459797.500000000, A.D. 2022-Aug-06 00:00:00.0000, 2.572327106319830E+09, 5.054234536439052E+09, -8.954032476733243E+08,
2459804.500000000, A.D. 2022-Aug-13 00:00:00.0000, 2.569668967008729E+09, 5.055728304619120E+09, -8.961968271785395E+08,
2459811.500000000, A.D. 2022-Aug-20 00:00:00.0000, 2.567010075294124E+09, 5.057220774140580E+09, -8.969901746420150E+08,
2459818.500000000, A.D. 2022-Aug-27 00:00:00.0000, 2.564350432875642E+09, 5.058711943788273E+09, -8.977832899230731E+08,
2459825.500000000, A.D. 2022-Sep-03 00:00:00.0000, 2.561690041442907E+09, 5.060201812568064E+09, -8.985761728807876E+08,
2459832.500000000, A.D. 2022-Sep-10 00:00:00.0000, 2.559028902541145E+09, 5.061690379704603E+09, -8.993688233626616E+08,
2459839.500000000, A.D. 2022-Sep-17 00:00:00.0000, 2.556367017435488E+09, 5.063177644537818E+09, -9.001612412002223E+08,
2459846.500000000, A.D. 2022-Sep-24 00:00:00.0000, 2.553704387034420E+09, 5.064663606267268E+09, -9.009534262212696E+08,
2459853.500000000, A.D. 2022-Oct-01 00:00:00.0000, 2.551041012112352E+09, 5.066148263522048E+09, -9.017453783027112E+08,
2459860.500000000, A.D. 2022-Oct-08 00:00:00.0000, 2.548376894238605E+09, 5.067631614278327E+09, -9.025370974588759E+08,
2459867.500000000, A.D. 2022-Oct-15 00:00:00.0000, 2.545712036480998E+09, 5.069113657323720E+09, -9.033285837820630E+08,
2459874.500000000, A.D. 2022-Oct-22 00:00:00.0000, 2.543046441702428E+09, 5.070594393584560E+09, -9.041198371731000E+08,
2459881.500000000, A.D. 2022-Oct-29 00:00:00.0000, 2.540380110948267E+09, 5.072073824722632E+09, -9.049108573032470E+08,
2459888.500000000, A.D. 2022-Nov-05 00:00:00.0000, 2.537713044023885E+09, 5.073551951742478E+09, -9.057016437762744E+08,
2459895.500000000, A.D. 2022-Nov-12 00:00:00.0000, 2.535045240297495E+09, 5.075028774876515E+09, -9.064921962071702E+08,
2459902.500000000, A.D. 2022-Nov-19 00:00:00.0000, 2.532376699008912E+09, 5.076504293793848E+09, -9.072825142296579E+08,
2459909.500000000, A.D. 2022-Nov-26 00:00:00.0000, 2.529707419346472E+09, 5.077978507735449E+09, -9.080725974891994E+08,
2459916.500000000, A.D. 2022-Dec-03 00:00:00.0000, 2.527037400458130E+09, 5.079451415564170E+09, -9.088624456377449E+08,
2459923.500000000, A.D. 2022-Dec-10 00:00:00.0000, 2.524366641442270E+09, 5.080923015748291E+09, -9.096520583329358E+08,
2459930.500000000, A.D. 2022-Dec-17 00:00:00.0000, 2.521695141342929E+09, 5.082393306253587E+09, -9.104414352460763E+08,
2459937.500000000, A.D. 2022-Dec-24 00:00:00.0000, 2.519022899258851E+09, 5.083862284278118E+09, -9.112305760942705E+08,
2459944.500000000, A.D. 2022-Dec-31 00:00:00.0000, 2.516349914923980E+09, 5.085329945937212E+09, -9.120194807206974E+08,
2459951.500000000, A.D. 2023-Jan-07 00:00:00.0000, 2.513676189882127E+09, 5.086796286861063E+09, -9.128081491555843E+08,
2459958.500000000, A.D. 2023-Jan-14 00:00:00.0000, 2.511001727288771E+09, 5.088261304201743E+09, -9.135965814367816E+08,
2459965.500000000, A.D. 2023-Jan-21 00:00:00.0000, 2.508326529695273E+09, 5.089724996876977E+09, -9.143847773899961E+08,
2459972.500000000, A.D. 2023-Jan-28 00:00:00.0000, 2.505650598483476E+09, 5.091187363855225E+09, -9.151727367210414E+08,
2459979.500000000, A.D. 2023-Feb-04 00:00:00.0000, 2.502973934742166E+09, 5.092648403509776E+09, -9.159604591534522E+08,
2459986.500000000, A.D. 2023-Feb-11 00:00:00.0000, 2.500296539790169E+09, 5.094108113848349E+09, -9.167479444625218E+08,
2459993.500000000, A.D. 2023-Feb-18 00:00:00.0000, 2.497618415282891E+09, 5.095566492795132E+09, -9.175351924671228E+08,
2460000.500000000, A.D. 2023-Feb-25 00:00:00.0000, 2.494939563165230E+09, 5.097023538363684E+09, -9.183222030164924E+08,
2460007.500000000, A.D. 2023-Mar-04 00:00:00.0000, 2.492259985573189E+09, 5.098479248739696E+09, -9.191089759796600E+08,
2460014.500000000, A.D. 2023-Mar-11 00:00:00.0000, 2.489579684713015E+09, 5.099933622274367E+09, -9.198955112399182E+08,
2460021.500000000, A.D. 2023-Mar-18 00:00:00.0000, 2.486898662765120E+09, 5.101386657339182E+09, -9.206818087024927E+08,
2460028.500000000, A.D. 2023-Mar-25 00:00:00.0000, 2.484216922016290E+09, 5.102838351995084E+09, -9.214678683376930E+08,
2460035.500000000, A.D. 2023-Apr-01 00:00:00.0000, 2.481534465644892E+09, 5.104288703869722E+09, -9.222536902661188E+08,
2460042.500000000, A.D. 2023-Apr-08 00:00:00.0000, 2.478851298543836E+09, 5.105737711467907E+09, -9.230392747291605E+08,
2460049.500000000, A.D. 2023-Apr-15 00:00:00.0000, 2.476167425844427E+09, 5.107185375809299E+09, -9.238246218206718E+08,
2460056.500000000, A.D. 2023-Apr-22 00:00:00.0000, 2.473482850950335E+09, 5.108631699341473E+09, -9.246097313950291E+08,
2460063.500000000, A.D. 2023-Apr-29 00:00:00.0000, 2.470797575816859E+09, 5.110076684381347E+09, -9.253946032183292E+08,
2460070.500000000, A.D. 2023-May-06 00:00:00.0000, 2.468111601715227E+09, 5.111520332866174E+09, -9.261792370557134E+08,
2460077.500000000, A.D. 2023-May-13 00:00:00.0000, 2.465424929505262E+09, 5.112962646520701E+09, -9.269636326783669E+08,
2460084.500000000, A.D. 2023-May-20 00:00:00.0000, 2.462737559650533E+09, 5.114403626949461E+09, -9.277477898519733E+08,
2460091.500000000, A.D. 2023-May-27 00:00:00.0000, 2.460049492169523E+09, 5.115843275624875E+09, -9.285317083270059E+08,
2460098.500000000, A.D. 2023-Jun-03 00:00:00.0000, 2.457360726580404E+09, 5.117281593797194E+09, -9.293153878342881E+08,
2460105.500000000, A.D. 2023-Jun-10 00:00:00.0000, 2.454671261863224E+09, 5.118718582312600E+09, -9.300988280894125E+08,
2460112.500000000, A.D. 2023-Jun-17 00:00:00.0000, 2.451981096528497E+09, 5.120154241279423E+09, -9.308820288193595E+08,
2460119.500000000, A.D. 2023-Jun-24 00:00:00.0000, 2.449290229112253E+09, 5.121588569638124E+09, -9.316649898363993E+08,
2460126.500000000, A.D. 2023-Jul-01 00:00:00.0000, 2.446598659350631E+09, 5.123021565463236E+09, -9.324477111150141E+08,
2460133.500000000, A.D. 2023-Jul-08 00:00:00.0000, 2.443906388360059E+09, 5.124453227819319E+09, -9.332301926512973E+08,
2460140.500000000, A.D. 2023-Jul-15 00:00:00.0000, 2.441213416546268E+09, 5.125883557341259E+09, -9.340124342191031E+08,
2460147.500000000, A.D. 2023-Jul-22 00:00:00.0000, 2.438519742763500E+09, 5.127312554504484E+09, -9.347944354305599E+08,
$$EOE